Typkennzeichnung,Einrichtungskennzeichen,Einrichtung Name,Einrichtung Strasse,Einrichtung PLZ,Einrichtung Bezirk,Einrichtung Platzzahl,streetName,streetNumber,lon,lat
PVOLL,PVOLL-0005-005,Haus Kaysersberg,Buschallee 89B,13088,Pankow,100,Buschallee ,89B,13.47409,52.55425
PVOLL,PVOLL-0005-006,Häuser Helene Schweitzer-Breslau und Günsbach - Altbau,Bahnhofstraße 32,13129,Pankow,102,Bahnhofstraße ,32,,
PVOLL,PVOLL-0005-009,Häuser Helene Schweitzer-Bresslau und Günsbach - Neubau,Bahnhofstraße 32,13129,Pankow,116,Bahnhofstraße ,32,,
PVOLL,PVOLL-0014-003,Seniorenheim Müggelschlößchenweg,Müggelschlößchenweg 46,12559,Treptow-Köpenick,150,Müggelschlößchenweg ,46,13.60212,52.44042
PVOLL,PVOLL-0065-002,Haus Malta Seniorenheim am Malteser-Krankenhaus,Insterburgallee 13A,14055,Charlottenburg-Wilmersdorf,51,Insterburgallee ,13A,13.25388,52.50877
PVOLL,PVOLL-0074-002,Pflegeheim Pinecki GmbH,Caspar-Theyß-Straße 23,14193,Charlottenburg-Wilmersdorf,71,Caspar-Theyß-Straße ,23,13.2896,52.49142
PVOLL,PVOLL-0093-004,St. Alexius Seniorenpflegeheim,Zingster Straße 74,13051,Lichtenberg,150,Zingster Straße ,74,13.49766,52.57337
PVOLL,PVOLL-0093-005,Bischof-Ketteler-Haus Seniorenpflegeheim,Gartenstraße 1-5,13088,Pankow,120,Gartenstraße ,1-5,13.46796,52.55074
PVOLL,PVOLL-0143-007,"Altenpflegeheim ""Haus Ruth""",Wilhelm-Kuhr-Straße 78,13187,Pankow,84,Wilhelm-Kuhr-Straße ,78,13.39589,52.56836
PVOLL,PVOLL-0143-008,Heinrich-Grüber-Haus und Margarete-Grüber-Haus,Teltower Damm 124,14167,Steglitz-Zehlendorf,70,Teltower Damm ,124,13.26296,52.42272
PVOLL,PVOLL-0159-002,Pro Seniore Krankenheim Meinekestraße ,Meinekestraße 15,10719,Charlottenburg-Wilmersdorf,93,Meinekestraße ,15,13.32932,52.49979
PVOLL,PVOLL-0552-002,Seniorenzentrum Bethel Friedrichshain gGmbH,Andreasstraße 21,10243,Friedrichshain-Kreuzberg,100,Andreasstraße ,21,13.43245,52.51371
PVOLL,PVOLL-0570-002,Herzogin Luise Haus ,Waldemarstraße 10a,10999,Friedrichshain-Kreuzberg,30,Waldemarstraße ,10a,,
PVOLL,PVOLL-0588-002,"Alten- und Pflegeheim ""Am Schlossgarten""",Schloßallee 3,13156,Pankow,45,Schloßallee ,3,13.4208,52.58106
PVOLL,PVOLL-0588-003,Epikur Alten- und Pflegeheim,Alt-Karow 20,13125,Pankow,19,Alt-Karow ,20,13.48439,52.61317
PVOLL,PVOLL-0627-002,Seniorenstift St. Antonius,Rheinpfalzallee 66,10318,Lichtenberg,100,Rheinpfalzallee ,66,13.5344,52.48956
PVOLL,PVOLL-0765-002,TERTIANUM Residenz Berlin,Passauer Straße 5-7,10789,Tempelhof-Schöneberg,25,Passauer Straße ,5-7,13.33956,52.50115
PVOLL,PVOLL-0782-004,Erich-Raddatz-Haus,Sonnenallee 298-302,12057,Neukölln,113,Sonnenallee ,298-302,13.46849,52.4669
PVOLL,PVOLL-0782-005,Haus Simeon,Buckower Damm 31a,12349,Neukölln,120,Buckower Damm ,31a,13.43562,52.44105
PVOLL,PVOLL-0782-006,Hermann-Radtke-Haus,Buckower Damm 31,12349,Neukölln,93,Buckower Damm ,31,13.43562,52.44105
PVOLL,PVOLL-0782-008,Haus Elisabeth,Treskowallee 210- 220,12459,Treptow-Köpenick,124,Treskowallee ,210-220,,
PVOLL,PVOLL-0866-013,RENAFAN ServiceLeben-Tegel,Schloßstraße 6,13507,Reinickendorf,140,Schloßstraße ,6,13.28394,52.59157
PVOLL,PVOLL-0866-014,RENAFAN ServiceLeben LudwigPark - Pflegeheim,Zepernicker Straße 2,13125,Pankow,84,Zepernicker Straße ,2,13.50991,52.63983
PVOLL,PVOLL-0898-004,Hauptstadtpflege Haus Jungfernheide,Schweiggerweg 2-12,13627,Charlottenburg-Wilmersdorf,135,Schweiggerweg ,2-12,13.28285,52.53835
PVOLL,PVOLL-0898-006,Hauptstadtpflege Haus Jahreszeiten,Büschingstraße 29,10249,Friedrichshain-Kreuzberg,151,Büschingstraße ,29,13.42758,52.52443
PVOLL,PVOLL-0898-007,Hauptstadtpflege Haus Weidenweg,Weidenweg 42,10249,Friedrichshain-Kreuzberg,122,Weidenweg ,42,13.45082,52.51719
PVOLL,PVOLL-0898-008,Hauptstadtpflege Haus Leonore,Leonorenstraße 17-33,12247,Steglitz-Zehlendorf,178,Leonorenstraße ,17-33,13.341,52.44372
PVOLL,PVOLL-0898-009,Hauptstadtpflege Haus Teichstraße,Teichstraße 44,13407,Reinickendorf,145,Teichstraße ,44,13.34729,52.56886
PVOLL,PVOLL-0898-010,Hauptstadtpflege Haus Dr. Hermann Kantorowicz,Schönwalder Straße 50-52,13585,Spandau,103,Schönwalder Straße ,50-52,13.19993,52.55225
PVOLL,PVOLL-0898-011,Hauptstadtpflege Haus Ernst Hoppe,Lanzendorfer Weg 30,14089,Spandau,148,Lanzendorfer Weg ,30,13.11434,52.44915
PVOLL,PVOLL-0898-014,Hauptstadtpflege Haus Wilmersdorf,Berkaer Straße 31-35,14199,Charlottenburg-Wilmersdorf,123,Berkaer Straße ,31-35,13.28573,52.47878
PVOLL,PVOLL-0898-018,Hauptstadtpflege Haus Sommerstraße,Sommerstraße 25C,13409,Reinickendorf,72,Sommerstraße ,25C,13.37428,52.57439
PVOLL,PVOLL-0898-020,Hauptstadtpflege Haus John F. Kennedy,Alt-Wittenau 89-90,13437,Reinickendorf,180,Alt-Wittenau ,89-90,13.33586,52.58943
PVOLL,PVOLL-0898-023,Hauptstadtpflege Haus Louise-Schroeder,Westphalweg 1,12109,Tempelhof-Schöneberg,80,Westphalweg ,1,13.39581,52.44504
PVOLL,PVOLL-0898-024,Hauptstadtpflege Haus Seebrücke,Am Maselakepark 20,13587,Spandau,179,Am Maselakepark ,20,13.21159,52.55563
PVOLL,PVOLL-0898-027,Hauptstadtpflege Haus Ida Wolff,Juchaczweg 21,12351,Neukölln,112,Juchaczweg ,21,13.45711,52.43444
PVOLL,PVOLL-0898-031,Hauptstadtpflege Haus Rhinstraße ,Rhinstraße 105,10315,Lichtenberg,147,Rhinstraße ,105,,
PVOLL,PVOLL-0898-032,Hauptstadtpflege Haus Britz ,Buschkrugallee 139,12359,Neukölln,110,Buschkrugallee ,139,13.45333,52.45087
PVOLL,PVOLL-0898-033,Hauptstadtpflege Haus Danziger Straße ,Danziger Straße 245,10407,Pankow,88,Danziger Straße ,245,13.44831,52.52749
PVOLL,PVOLL-0898-034,Hauptstadtpflege Haus Franckepark ,Götzstraße 20a,12099,Tempelhof-Schöneberg,88,Götzstraße ,20a,13.39059,52.4643
PVOLL,PVOLL-0901-001,AlexA Seniorenresidenz Berlin-Lichtenrade,Rudolf-Pechel-Straße 32,12305,Tempelhof-Schöneberg,145,Rudolf-Pechel-Straße ,32,13.39441,52.40122
PVOLL,PVOLL-0901-002,AlexA Seniorenresidenz Berlin-Lichtenberg,Möllendorffstraße 90B,10367,Lichtenberg,24,Möllendorffstraße ,90B,13.47825,52.51976
PVOLL,PVOLL-0904-001,Alten- und Pflegeheim Silvia Walke,Gallwitzallee 127,12249,Steglitz-Zehlendorf,47,Gallwitzallee ,127,13.35141,52.425
PVOLL,PVOLL-0907-001,Alten-und Pflegeheim Lutherheim,Müllenhoffstraße 5,10967,Friedrichshain-Kreuzberg,59,Müllenhoffstraße ,5,13.41511,52.492
PVOLL,PVOLL-0916-001,Fürsorge im Alter Seniorenresidenz Haus Bavaria,Alt-Tempelhof 10-12,12099,Tempelhof-Schöneberg,140,Alt-Tempelhof ,10-12,13.38765,52.46617
PVOLL,PVOLL-0920-001,Blindenwohnstätte Kniesehaus gemeinnützige BetriebsGmbH ,Stindestraße 25,12167,Steglitz-Zehlendorf,78,Stindestraße ,25,13.33936,52.44775
PVOLL,PVOLL-0922-001,BWS Blindenwohnstätten gemeinn. Betriebs GmbH Spandau,Niederneuendorfer Allee 6-9,13587,Spandau,120,Niederneuendorfer Allee ,6-9,13.21032,52.56634
PVOLL,PVOLL-0927-001,DRK Kliniken Berlin I Pflege & Wohnen Mariendorf,Britzer Straße 91,12109,Tempelhof-Schöneberg,142,Britzer Straße ,91,13.39758,52.4398
PVOLL,PVOLL-0930-001,Elsbeth-Seidel-Haus,Wernerstraße 9-11,14193,Charlottenburg-Wilmersdorf,101,Wernerstraße ,9-11,13.27367,52.48333
PVOLL,PVOLL-0936-001,Ev. Pflegeheim Lutherstift - Altbau,Lutherstraße 7,12167,Steglitz-Zehlendorf,38,Lutherstraße ,7,13.32758,52.4501
PVOLL,PVOLL-0936-002,Ev. Pflegeheim Lutherstift - Neubau,Lutherstraße 7,12167,Steglitz-Zehlendorf,24,Lutherstraße ,7,13.32758,52.4501
PVOLL,PVOLL-0941-002,Pflege & Wohnen Elisabeth,Lützowstraße 24,10785,Mitte,112,Lützowstraße ,24,13.3649,52.50353
PVOLL,PVOLL-0941-003,Pflege & Wohnen Hubertus ,Spanische Allee 10-12,14129,Steglitz-Zehlendorf,31,Spanische Allee ,10-12,13.22124,52.4302
PVOLL,PVOLL-0942-001,Evangelisches Seniorenheim Albestraße,Albestraße 31,12159,Tempelhof-Schöneberg,108,Albestraße ,31,13.33384,52.4733
PVOLL,PVOLL-0947-001,Fugger-Klinik,Fuggerstraße 29,10777,Tempelhof-Schöneberg,108,Fuggerstraße ,29,13.34356,52.49889
PVOLL,PVOLL-0948-001,geriavita Pflegeheim am Schützenhof,Niederneuendorfer Allee 13,13587,Spandau,57,Niederneuendorfer Allee ,13,13.21204,52.56824
PVOLL,PVOLL-0951-001,Haus Birkenhof,Lindenthaler Allee 20,14163,Steglitz-Zehlendorf,27,Lindenthaler Allee ,20,13.23028,52.43428
PVOLL,PVOLL-0953-001,Haus Christophorus,Eyke-von-Repkow-Platz 2,10555,Mitte,28,Eyke-von-Repkow-Platz ,2,13.3332,52.51885
PVOLL,PVOLL-0954-002,Haus der Betreuung und Pflege Schlachtensee,Spanische Allee 8,14129,Steglitz-Zehlendorf,54,Spanische Allee ,8,13.22198,52.4305
PVOLL,PVOLL-0954-005,Haus der Betreuung und Pflege Nansen,Berliner Straße 11,14169,Steglitz-Zehlendorf,118,Berliner Straße ,11,13.26375,52.43553
PVOLL,PVOLL-0954-006,Seniorenwelt Zühlsdorfer Straße,Zühlsdorfer Straße 20,12679,Marzahn-Hellersdorf,115,Zühlsdorfer Straße ,20,13.54961,52.54685
PVOLL,PVOLL-0954-008,Haus der Betreuung und Pflege Am Grabensprung ,Grabensprung 29,12683,Marzahn-Hellersdorf,150,Grabensprung ,29,13.55301,52.50669
PVOLL,PVOLL-0954-009,Haus der Betreuung und Pflege Biesdorf-Süd  ,Köpenicker Straße 302,12683,Marzahn-Hellersdorf,112,Köpenicker Straße ,302,13.55809,52.47491
PVOLL,PVOLL-0961-001,Haus Friedenshöhe Ev. stationäre Pflegeeinrichtung,Sigismundkorso 68-70,13465,Reinickendorf,125,Sigismundkorso ,68-70,13.27646,52.62995
PVOLL,PVOLL-0961-002,Fischer-Dittmer-Heim Ev. stationäre Pflegeeinrichtung,Hohenzollernring 119,13585,Spandau,52,Hohenzollernring ,119,13.19674,52.55547
PVOLL,PVOLL-0961-003,Haus Rüsternallee Ev. stationäre Pflegeeinrichtung,Rüsternallee 4,14050,Charlottenburg-Wilmersdorf,89,Rüsternallee ,4,13.27456,52.51342
PVOLL,PVOLL-0964-001,SeniorenHaus Lerchenweg,Eisenacher Straße 70,12109,Tempelhof-Schöneberg,80,Eisenacher Straße ,70,13.38671,52.44822
PVOLL,PVOLL-0965-002,Pflegewerk Haus Curamus gGmbH,Ladenbergstraße 6-8,14195,Steglitz-Zehlendorf,62,Ladenbergstraße ,6-8,13.29195,52.44616
PVOLL,PVOLL-0967-001,Seniorenpflegeheim Haus Rothenburg,Herwarthstraße 15,12207,Steglitz-Zehlendorf,18,Herwarthstraße ,15,13.31455,52.432
PVOLL,PVOLL-0969-001,Haus Teplitz Alten- und Pflegeheim GmbH ,Teplitzer Straße 10,14193,Charlottenburg-Wilmersdorf,37,Teplitzer Straße ,10,13.2814,52.48156
PVOLL,PVOLL-0970-001,Haus Waldow Senioren- und Pflegeheim,Cimbernstraße 36,14129,Steglitz-Zehlendorf,30,Cimbernstraße ,36,13.19921,52.42502
PVOLL,PVOLL-0971-001,Haus Wiesengrund gGmbH,Pinnauweg 15-17,14167,Steglitz-Zehlendorf,49,Pinnauweg ,15-17,13.27853,52.42101
PVOLL,PVOLL-0977-003,Hermann-Strauß Pflegeheim,Herbartstraße 24,14057,Charlottenburg-Wilmersdorf,41,Herbartstraße ,24,13.28638,52.50424
PVOLL,PVOLL-0980-001,Johanniter-Stift Berlin-Lichterfelde,Finckensteinallee 125,12205,Steglitz-Zehlendorf,144,Finckensteinallee ,125,13.28906,52.43266
PVOLL,PVOLL-0982-001,Caritas-Seniorenheim Bernhard-Lichtenberg-Haus,Alt-Lietzow 27/ 29,10587,Charlottenburg-Wilmersdorf,43,Alt-Lietzow ,27/29,13.31007,52.51887
PVOLL,PVOLL-0982-002,Caritas-Seniorenheim Franz-Jordan-Stift,Dianastraße 17,13469,Reinickendorf,90,Dianastraße ,17,13.3138,52.60881
PVOLL,PVOLL-0982-004,Caritas-Seniorenzentrum St. Albertus,Degnerstraße 22,13053,Lichtenberg,76,Degnerstraße ,22,13.49649,52.54755
PVOLL,PVOLL-0982-005,Caritas-Seniorenzentrum Kardinal Bengsch,Iburger Ufer 14,10587,Charlottenburg-Wilmersdorf,63,Iburger Ufer ,14,13.31093,52.52007
PVOLL,PVOLL-0982-006,Caritas-Seniorenheim St. Kamillus,Klausenerplatz 12-13,14059,Charlottenburg-Wilmersdorf,40,Klausenerplatz ,12-13,13.29152,52.51772
PVOLL,PVOLL-0982-009,Caritas-Seniorenheim St. Josef,Dominicusstraße 13,10823,Tempelhof-Schöneberg,97,Dominicusstraße ,13,13.34652,52.4832
PVOLL,PVOLL-0982-011,Caritas-Seniorenzentrum St. Konrad,Antoniuskirchstraße 3-5,12459,Treptow-Köpenick,89,Antoniuskirchstraße ,3-5,13.51646,52.4654
PVOLL,PVOLL-0982-013,Caritas-Seniorenzentrum St. Johannes Berlin ,Wilhelmstraße 122,10963,Friedrichshain-Kreuzberg,68,Wilhelmstraße ,122,13.38732,52.50351
PVOLL,PVOLL-0983-001,Karl-Steeb-Heim,Hagenstraße 39-47,14193,Charlottenburg-Wilmersdorf,100,Hagenstraße ,39-47,13.27173,52.47962
PVOLL,PVOLL-0987-003,Komplexe Pflegeeinrichtung Friedrich W. Büttner,Greifswalder Straße 91,10409,Pankow,50,Greifswalder Straße ,91,13.44241,52.54376
PVOLL,PVOLL-0988-001,König Seniorenheim,Libellenstraße 15/16,14129,Steglitz-Zehlendorf,70,Libellenstraße ,15/16,13.19499,52.42475
PVOLL,PVOLL-0990-001,Seniorenhaus am Rhumeweg,Rhumeweg 32,14163,Steglitz-Zehlendorf,65,Rhumeweg ,32,13.22911,52.43314
PVOLL,PVOLL-0991-001,Psychiatrisches Zentrum für Betreuung und Pflege am Sandwerder Berlin-Wannsee,Am Sandwerder 43,14109,Steglitz-Zehlendorf,85,Am Sandwerder ,43,13.18436,52.42791
PVOLL,PVOLL-0991-003,Seniorenpflegezentrum Curanum Jungfernstieg,Jungfernstieg 18,12207,Steglitz-Zehlendorf,42,Jungfernstieg ,18,13.32907,52.43259
PVOLL,PVOLL-0995-001,Kursana Domizil Berlin-Marzahn,Märkische Allee 68,12681,Marzahn-Hellersdorf,153,Märkische Allee ,68,13.5429,52.52294
PVOLL,PVOLL-0995-002,Kursana Domizil Berlin-Lichtenberg,Gensinger Straße 103,10315,Lichtenberg,148,Gensinger Straße ,103,13.53354,52.51154
PVOLL,PVOLL-0997-001,KATHARINENHOF am Spreeufer,Bruno-Bürgel-Weg 1-5,12439,Treptow-Köpenick,118,Bruno-Bürgel-Weg ,1-5,13.53354,52.45236
PVOLL,PVOLL-0997-002,KATHARINENHOF City West,Schlüterstraße 62,10625,Charlottenburg-Wilmersdorf,114,Schlüterstraße ,62,13.31783,52.50572
PVOLL,PVOLL-0997-003,KATHARINENHOF in Friedenau,Bennigsenstraße 23/24,12159,Tempelhof-Schöneberg,74,Bennigsenstraße ,23/24,13.33736,52.47654
PVOLL,PVOLL-0997-004,KATHARINENHOF Alt Britz,Britzer Damm 140,12347,Neukölln,131,Britzer Damm ,140,13.43711,52.45048
PVOLL,PVOLL-1004-001,Nova Vita Residenz Berlin-Wilmersdorf,Emser Platz 5,10719,Charlottenburg-Wilmersdorf,34,Emser Platz ,5,13.31889,52.49235
PVOLL,PVOLL-1004-002,Nova Vita Pflegeresidenz im Paulinenhaus ,Eschenallee 28,14050,Charlottenburg-Wilmersdorf,86,Eschenallee ,28,13.26741,52.51458
PVOLL,PVOLL-1007-001,Pflege- und Gesundheitszentrum Treptow,Kiefholzstraße 177,12437,Treptow-Köpenick,40,Kiefholzstraße ,177,13.4848,52.46655
PVOLL,PVOLL-1014-001,"Pflegeheim Heinz Gärtner GmbH ""Ruhesitz am Tiergarten""",Zietenstraße 4,10783,Tempelhof-Schöneberg,44,Zietenstraße ,4,13.35725,52.49966
PVOLL,PVOLL-1015-001,Pflegeheim Huttenstraße GmbH,Huttenstraße 65,10553,Mitte,74,Huttenstraße ,65,13.3261,52.52746
PVOLL,PVOLL-1016-001,Pflege & Wohnen Sunpark,Mariendorfer Weg 22,12051,Neukölln,191,Mariendorfer Weg ,22,13.42668,52.46404
PVOLL,PVOLL-1022-001,Haus Abendsonne - Altbau    ,Volkradstraße 28,10319,Lichtenberg,100,Volkradstraße ,28,13.50693,52.50006
PVOLL,PVOLL-1022-004,Haus Abendsonne - Anbau,Volkradstraße 28,10319,Lichtenberg,13,Volkradstraße ,28,13.50693,52.50006
PVOLL,PVOLL-1026-001,Wohnpark am Cecilienplatz,Lily-Braun-Straße 54,12619,Marzahn-Hellersdorf,145,Lily-Braun-Straße ,54,13.59378,52.52082
PVOLL,PVOLL-1026-003,Pflegewohnzentrum Wuhlepark,Bansiner Straße 21,12619,Marzahn-Hellersdorf,296,Bansiner Straße ,21,13.58501,52.51808
PVOLL,PVOLL-1026-006,"Wohnpark am Rohrpfuhl, WG f. pflegeb.ältere Menschen",Florastraße 1,12623,Marzahn-Hellersdorf,80,Florastraße ,1,13.61639,52.51407
PVOLL,PVOLL-1030-001,Pflegezentrum Sonnenallee,Sonnenallee 47,12045,Neukölln,145,Sonnenallee ,47,13.43239,52.48553
PVOLL,PVOLL-1031-001,Seniorenstift St. Marien Berlin-Kreuzberg,Lausitzer Straße 41-44,10999,Friedrichshain-Kreuzberg,69,Lausitzer Straße ,41-44,13.42859,52.4969
PVOLL,PVOLL-1033-001,Pflegeheim B. Effinger,Bruno-Bürgel-Weg 122,12439,Treptow-Köpenick,60,Bruno-Bürgel-Weg ,122,13.54681,52.45375
PVOLL,PVOLL-1035-001,Pro Seniore Krankenheim Eichborndamm,Eichborndamm 176,13403,Reinickendorf,156,Eichborndamm ,176,13.32153,52.58422
PVOLL,PVOLL-1036-001,Pro Seniore Krankenheim Genthiner Straße,Genthiner Straße 24-28,10785,Mitte,173,Genthiner Straße ,24-28,13.35925,52.50371
PVOLL,PVOLL-1044-001,Residenz Ambiente Berlin,Am Friedrichshain 16-18,10407,Pankow,156,Am Friedrichshain ,16-18,13.42985,52.52888
PVOLL,PVOLL-1046-001,Residenz Zehlendorf,Claszeile 40,14165,Steglitz-Zehlendorf,145,Claszeile ,40,13.25726,52.42071
PVOLL,PVOLL-1047-001,Park Alterssitz City,Meinekestraße 14,10719,Charlottenburg-Wilmersdorf,122,Meinekestraße ,14,13.32887,52.4996
PVOLL,PVOLL-1048-001,Pflegewerk Senioren Centrum gGmbH Wisbyer Straße ,Wisbyer Straße 16/17,10439,Pankow,74,Wisbyer Straße ,16/17,13.42114,52.55261
PVOLL,PVOLL-1048-002,Pflegewerk Senioren Centrum gGmbHTurmstraße,Turmstraße 21,10559,Mitte,56,Turmstraße ,21,13.34785,52.52642
PVOLL,PVOLL-1048-003,Pflegewerk Senioren Centrum Haus Michaelkirchstrasse  ,Michaelkirchstraße 19,10179,Mitte,31,Michaelkirchstraße ,19,13.42251,52.5112
PVOLL,PVOLL-1050-001,Seniorenhaus Siegfriedshof,Wotanstraße 2-3,10365,Lichtenberg,56,Wotanstraße ,2-3,13.4965,52.51475
PVOLL,PVOLL-1052-001,Senioren- und Therapiezentrum Haus am Park,Schonensche Straße 26,13189,Pankow,269,Schonensche Straße ,26,13.42139,52.55407
PVOLL,PVOLL-1055-001,Seniorendomizil am Alboinplatz,Friedrich-Wilhelm-Straße 52,12103,Tempelhof-Schöneberg,51,Friedrich-Wilhelm-Straße ,52,13.37288,52.4585
PVOLL,PVOLL-1056-001,Seniorendomizil an der Panke GmbH,Koloniestraße 23,13359,Mitte,96,Koloniestraße ,23,13.37926,52.55828
PVOLL,PVOLL-1062-001,Seniorenheim Schleusinger Straße,Schleusinger Straße 14,12687,Marzahn-Hellersdorf,125,Schleusinger Straße ,14,13.56522,52.55852
PVOLL,PVOLL-1064-001,Seniorenheim Helmut-Böttcher-Haus,Woldegker Straße 5,13059,Lichtenberg,162,Woldegker Straße ,5,13.51295,52.57448
PVOLL,PVOLL-1064-002,Seniorenheim Haus Am Auwald,Buckower Ring 62,12683,Marzahn-Hellersdorf,119,Buckower Ring ,62,13.5738,52.5256
PVOLL,PVOLL-1064-003,Seniorenheim Alfred-Jung-Straße,Alfred-Jung-Straße 17,10367,Lichtenberg,146,Alfred-Jung-Straße ,17,13.47695,52.52261
PVOLL,PVOLL-1065-001,Seniorenheim  St. Richard ,Schudomastraße 16,12055,Neukölln,68,Schudomastraße ,16,13.45131,52.4733
PVOLL,PVOLL-1067-001,Seniorenheim am Jungfernstieg GmbH,Jungfernstieg 24/24A,12207,Steglitz-Zehlendorf,47,Jungfernstieg ,24/24A,13.32707,52.43073
PVOLL,PVOLL-1068-002,"Seniorenheim am Lietzensee GmbH ""Haus Rixdorf""",Delbrückstraße 25,12051,Neukölln,314,Delbrückstraße ,25,13.43519,52.46512
PVOLL,PVOLL-1071-001,Seniorenheim Bessemerstraße,Bessemerstraße 78,12103,Tempelhof-Schöneberg,199,Bessemerstraße ,78,13.36638,52.46129
PVOLL,PVOLL-1072-001,Seniorenheim Czapla GmbH,Bayernallee 49-50,14052,Charlottenburg-Wilmersdorf,36,Bayernallee ,49-50,13.26743,52.51008
PVOLL,PVOLL-1073-001,Gerontopsychiatrisches Seniorenheim Splitt-Fennert,Lyckallee 6,14055,Charlottenburg-Wilmersdorf,34,Lyckallee ,6,13.25399,52.50655
PVOLL,PVOLL-1074-001,Seniorenheim Grüntal,Grüntaler Straße 53,13359,Mitte,126,Grüntaler Straße ,53,13.39605,52.55696
PVOLL,PVOLL-1076-001,Seniorenheim Gürtelstraße 32a,Gürtelstraße 32A,10409,Pankow,149,Gürtelstraße ,32A,,
PVOLL,PVOLL-1076-002,Seniorenheim Gürtelstraße 32,Gürtelstraße 32,10409,Pankow,150,Gürtelstraße ,32,,
PVOLL,PVOLL-1076-003,Seniorenheim Stavangerstraße 26 ,Stavangerstraße 26,10439,Pankow,150,Stavangerstraße ,26,13.41291,52.55687
PVOLL,PVOLL-1077-001,mevanta Haus Rheingold,Rheingoldstraße 19,10318,Lichtenberg,25,Rheingoldstraße ,19,13.53235,52.48073
PVOLL,PVOLL-1078-002,Seniorenheim Koenigsallee,Koenigsallee 15,14193,Charlottenburg-Wilmersdorf,78,Koenigsallee ,15,13.2796,52.49195
PVOLL,PVOLL-1078-003,Seniorenheim Lentzeallee,Lentzeallee 2-4,14195,Charlottenburg-Wilmersdorf,91,Lentzeallee ,2-4,13.29094,52.47051
PVOLL,PVOLL-1078-004,Seniorenheim Hohensteiner Straße,Hohensteiner Straße 6-12,14197,Charlottenburg-Wilmersdorf,79,Hohensteiner Straße ,6-12,13.31592,52.47651
PVOLL,PVOLL-1079-001,Haus Isabel GmbH,Soorstraße 60,14057,Charlottenburg-Wilmersdorf,40,Soorstraße ,60,13.27819,52.50936
PVOLL,PVOLL-1087-001,Seniorenheim Seeburger Weg,Seeburger Weg 26-28,13581,Spandau,38,Seeburger Weg ,26-28,13.17441,52.52381
PVOLL,PVOLL-1090-001,AWW-Seniorenheim Steglitz,Grunewaldstraße 39,12165,Steglitz-Zehlendorf,54,Grunewaldstraße ,39,13.31073,52.45975
PVOLL,PVOLL-1099-001,Fürsorge im Alter Seniorenresidenz Haus Pankow,Schulzestraße 10,13187,Pankow,176,Schulzestraße ,10,13.39266,52.56629
PVOLL,PVOLL-1099-002,Fürsorge im Alter Seniorenresidenz Haus Steglitz,Klingsorstraße 121,12203,Steglitz-Zehlendorf,180,Klingsorstraße ,121,13.31632,52.44299
PVOLL,PVOLL-1101-001,Seniorenwohnanlage Rosenhof Berlin-Mariendorf,Kruckenbergstraße 1,12107,Tempelhof-Schöneberg,47,Kruckenbergstraße ,1,13.38887,52.43124
PVOLL,PVOLL-1105-001,Paritätisches Seniorenwohnen am Rosengarten,Theodor-Brugsch-Straße 18,13125,Pankow,140,Theodor-Brugsch-Straße ,18,13.50128,52.62946
PVOLL,PVOLL-1105-002,"Paritätisches Seniorenwohnen ""Dr.Victor Aronstein"" ",Joachimsthaler Straße 2,13055,Lichtenberg,144,Joachimsthaler Straße ,2,13.5006,52.53797
PVOLL,PVOLL-1105-004,Paritätisches Seniorenwohnen am Heckelberger Ring,Heckelberger Ring 2,13055,Lichtenberg,107,Heckelberger Ring ,2,13.50643,52.54723
PVOLL,PVOLL-1105-005,Paritätisches Seniorenwohnen am Schloßpark,Alt-Buch 48-50,13125,Pankow,286,Alt-Buch ,48-50,13.5014,52.6356
PVOLL,PVOLL-1105-007,PARITÄTISCHES Seniorenwohnen Vincent van Gogh,Vincent-van-Gogh-Straße 19,13057,Lichtenberg,144,Vincent-van-Gogh-Straße ,19,13.52435,52.56531
PVOLL,PVOLL-1107-001,Senioren-Wohnpark Lichtenberg GmbH,Möllendorffstraße 102/103,10367,Lichtenberg,81,Möllendorffstraße ,102/103,13.4798,52.51778
PVOLL,PVOLL-1108-001,Seniorenzentrum Haus am Loeperplatz,Möllendorffstraße 28/29,10367,Lichtenberg,271,Möllendorffstraße ,28/29,,
PVOLL,PVOLL-1109-001,Senioren- und Therapiezentrum Haus Havelblick,Havelschanze 3,13587,Spandau,499,Havelschanze ,3,13.20851,52.55422
PVOLL,PVOLL-1113-001,Werner-Bockelmann-Haus gGmbH,Bundesallee 48B - 50,10715,Charlottenburg-Wilmersdorf,114,Bundesallee ,48B-50,13.33067,52.48486
PVOLL,PVOLL-1117-002,Seniorenzentrum Köpenick- Haus II ,Werlseestraße 37-39a,12587,Treptow-Köpenick,150,Werlseestraße ,37-39a,13.63669,52.4533
PVOLL,PVOLL-1117-003,Seniorenzentrum Köpenick- Haus III,Werlseestraße 37-39a,12587,Treptow-Köpenick,150,Werlseestraße ,37-39a,13.63669,52.4533
PVOLL,PVOLL-1117-006,Seniorenzentrum Köpenick- Haus I ,Werlseestraße 37-39a,12587,Treptow-Köpenick,90,Werlseestraße ,37-39a,13.63669,52.4533
PVOLL,PVOLL-1118-001,Kursana Domizil Berlin- Haus Landsberger Tor,Hirschfelder Weg 14,12679,Marzahn-Hellersdorf,99,Hirschfelder Weg ,14,13.57245,52.54506
PVOLL,PVOLL-1119-001,"Seniorenzentrum Lichtenberg ""Prof. Dr. Kurt Winter""",Josef-Orlopp-Straße 13,10367,Lichtenberg,120,Josef-Orlopp-Straße ,13,13.48218,52.52402
PVOLL,PVOLL-1122-001,St. Elisabeth Haus Lichtenrade -Behindertenpflegewohnheim-,Briesingstraße 22,12307,Tempelhof-Schöneberg,48,Briesingstraße ,22,13.39906,52.38485
PVOLL,PVOLL-1123-001,St. Elisabeth-Seniorenheim,Fichtenweg 17-29,13587,Spandau,44,Fichtenweg ,17-29,13.2094,52.57055
PVOLL,PVOLL-1136-001,KATHARINENHOF im Uferpalais,Brauereihof 19,13585,Spandau,43,Brauereihof ,19,13.21156,52.54672
PVOLL,PVOLL-1136-003,KATHARINENHOFf am Preußenpark ,Sächsische Straße 46,10707,Charlottenburg-Wilmersdorf,120,Sächsische Straße ,46,13.31734,52.49224
PVOLL,PVOLL-1139-001,Pflegewohnheim Am Plänterwald,Neue Krugallee 142,12437,Treptow-Köpenick,140,Neue Krugallee ,142,13.48735,52.47419
PVOLL,PVOLL-1139-002,Pflegewohnheim Alt Treptow,Martin-Hoffmann-Straße 10,12435,Treptow-Köpenick,97,Martin-Hoffmann-Straße ,10,13.45837,52.4947
PVOLL,PVOLL-1139-004,Pflegewohnheim Dr. Günter Hesse,Pankower Straße 14,13156,Pankow,80,Pankower Straße ,14,13.42536,52.58541
PVOLL,PVOLL-1139-006,"Pflegewohnheim ""Am Kreuzberg""",Fidicinstraße 2,10965,Friedrichshain-Kreuzberg,185,Fidicinstraße ,2,13.38739,52.4871
PVOLL,PVOLL-1141-000,"Verbund Lichtenberger Seniorenheime Seniorenheim ""Judith-Auer-Straße""",Judith-Auer-Straße 8,10369,Lichtenberg,122,Judith-Auer-Straße ,8,13.46816,52.53379
PVOLL,PVOLL-1141-001,"Verbund Lichtenberger Seniorenheime Seniorenheim ""Am Tierpark""",Sewanstraße 235,10319,Lichtenberg,144,Sewanstraße ,235,13.5156,52.49499
PVOLL,PVOLL-1151-001,Vitanas Senioren Centrum Märkisches Viertel,Senftenberger Ring 51,13435,Reinickendorf,175,Senftenberger Ring ,51,13.3561,52.60484
PVOLL,PVOLL-1151-002,Vitanas Senioren Centrum Am Bäkepark,Bahnhofstraße 29,12207,Steglitz-Zehlendorf,92,Bahnhofstraße ,29,13.31882,52.43218
PVOLL,PVOLL-1151-004,Vitanas Senioren Centrum Am Schäfersee,Stargardtstraße 14,13407,Reinickendorf,187,Stargardtstraße ,14,13.35934,52.56619
PVOLL,PVOLL-1151-005,Vitanas Senioren Centrum Am Stadtpark,Stindestraße 31,12167,Steglitz-Zehlendorf,135,Stindestraße ,31,13.33812,52.44749
PVOLL,PVOLL-1151-007,Vitanas Senioren Centrum Frohnau,Welfenallee 37-43,13465,Reinickendorf,107,Welfenallee ,37-43,13.28707,52.62822
PVOLL,PVOLL-1151-009,Vitanas Senioren Centrum Rosengarten,Preysingstraße 40,12249,Steglitz-Zehlendorf,165,Preysingstraße ,40,13.36109,52.42575
PVOLL,PVOLL-1151-010,Vitanas Senioren Centrum Schäferberg,Königstraße 25-27,14109,Steglitz-Zehlendorf,123,Königstraße ,25-27,13.15431,52.41926
PVOLL,PVOLL-1151-011,Vitanas Senioren Centrum Am Obersee,Degnerstraße 11,13053,Lichtenberg,165,Degnerstraße ,11,13.49488,52.54667
PVOLL,PVOLL-1151-012,Vitanas Senioren Centrum Bellevue,Parrisiusstraße 4,12555,Treptow-Köpenick,149,Parrisiusstraße ,4,13.57896,52.45677
PVOLL,PVOLL-1168-001,Wohnstift Otto Dibelius,Hausstockweg 57,12107,Tempelhof-Schöneberg,55,Hausstockweg ,57,13.39264,52.43322
PVOLL,PVOLL-1178-003,Seniorenbetreuung Haus Kyritz,Kyritzer Straße 63,12629,Marzahn-Hellersdorf,140,Kyritzer Straße ,63,13.58944,52.54257
PVOLL,PVOLL-1178-006,Seniorenbetreuung Haus Kyritz - Neubau - Betreuung für demente Bewohner,Kyritzer Straße 63,12629,Marzahn-Hellersdorf,24,Kyritzer Straße ,63,13.58944,52.54257
PVOLL,PVOLL-1215-002,Seniorenhaus Waldfriede gGmbH,Adolfstraße 20,14165,Steglitz-Zehlendorf,85,Adolfstraße ,20,13.25557,52.41858
PVOLL,PVOLL-1221-001,Pflegeeinrichtung Käthe Kollwitz,Kaulbachstraße 63-67,12247,Steglitz-Zehlendorf,112,Kaulbachstraße ,63-67,,
PVOLL,PVOLL-1221-002,Pflegeeinrichtung Treptow-Johannisthal,Südostallee 212,12487,Treptow-Köpenick,156,Südostallee ,212,13.50569,52.4538
PVOLL,PVOLL-1261-002,Senioren Centrum Haus Pappelhof,Ketschendorfer Weg 33,12683,Marzahn-Hellersdorf,106,Ketschendorfer Weg ,33,13.55452,52.53122
PVOLL,PVOLL-1265-001,domino-world Club Tegel,Buddestraße 10,13507,Reinickendorf,180,Buddestraße ,10,13.28922,52.58779
PVOLL,PVOLL-1265-002,domino-world Club Treptow,Gondeker Straße 7,12437,Treptow-Köpenick,201,Gondeker Straße ,7,13.49169,52.46458
PVOLL,PVOLL-1271-002,Haus am Ostseeplatz,Ostseestraße 113,10409,Pankow,40,Ostseestraße ,113,13.44436,52.54589
PVOLL,PVOLL-1277-001,Haus am Weigandufer Berlin-Rixdorf,Roseggerstraße 19,12059,Neukölln,175,Roseggerstraße ,19,13.44751,52.48067
PVOLL,PVOLL-1277-002,Haus Gartenstadt Berlin-Rudow,Waltersdorfer Chaussee 160,12355,Neukölln,195,Waltersdorfer Chaussee ,160,13.51031,52.40404
PVOLL,PVOLL-1277-004,Haus am Kienhorstpark Berlin-Reinickendorf,Ollenhauerstraße 24-28,13403,Reinickendorf,171,Ollenhauerstraße ,24-28,13.32991,52.56831
PVOLL,PVOLL-1280-002,DOMICIL- Seniorenpflegeheim Am Schlosspark GmbH,Pestalozzistraße 30,13187,Pankow,191,Pestalozzistraße ,30,13.40612,52.57271
PVOLL,PVOLL-1285-001,Seniorenzentrum Bethel Köpenick ,Alfred-Randt-Straße 23,12559,Treptow-Köpenick,149,Alfred-Randt-Straße ,23,13.60562,52.44114
PVOLL,PVOLL-1288-001,ABC Blindenwohnstätte in Weißensee gemeinnützige Betriebs GmbH ,Berliner Allee 193-197,13088,Pankow,100,Berliner Allee ,193-197,13.46715,52.55539
PVOLL,PVOLL-1302-001,Seniorenzentrum St.Michael,Höhensteig 2,12526,Treptow-Köpenick,100,Höhensteig ,2,13.56768,52.40647
PVOLL,PVOLL-1322-001,Diakonisches Pflegewohnheim Schillerpark,Müllerstraße 56-58,13349,Mitte,141,Müllerstraße ,56-58,13.34648,52.55383
PVOLL,PVOLL-1322-004,Pflege & Wohnen am EGZB,Reinickendorfer Straße 61,13347,Mitte,50,Reinickendorfer Straße ,61,13.36572,52.55456
PVOLL,PVOLL-1335-001,FSE Pflegeeinrichtung House of Life ,Blücherstraße 26B,10961,Friedrichshain-Kreuzberg,118,Blücherstraße ,26B,13.40108,52.49266
PVOLL,PVOLL-1335-002,Pflegeeinrichtung Marzahn,Wittenberger Straße 38,12689,Marzahn-Hellersdorf,150,Wittenberger Straße ,38,13.56769,52.564
PVOLL,PVOLL-1335-003,Pflegeeinrichtung Käthe Kern,Woldegker Straße 21,13059,Lichtenberg,140,Woldegker Straße ,21,13.51267,52.57333
PVOLL,PVOLL-1363-001,Pflegewohnheim Haus Luther,Teltower Damm 197,14167,Steglitz-Zehlendorf,96,Teltower Damm ,197,13.26847,52.41636
PVOLL,PVOLL-1369-001,"Zentrum f. Beatmung und Intensivpflege im ""Storkower Bogen"" GmbH",Franz-Jacob-Straße 4D,10369,Lichtenberg,12,Franz-Jacob-Straße ,4D,13.46584,52.52594
PVOLL,PVOLL-1370-001,DOMICIL- Seniorenpflegeheim Residenzstrasse,Thaterstraße 18,13407,Reinickendorf,163,Thaterstraße ,18,13.35816,52.56739
PVOLL,PVOLL-1397-001,Stephanus gGmbH Ernst-Berendt-Haus,Albertinenstraße 20,13086,Pankow,94,Albertinenstraße ,20,13.45904,52.55171
PVOLL,PVOLL-1397-002,Stephanus gGmbH Haus Zur Brücke,Wendenschloßstraße 35,12559,Treptow-Köpenick,150,Wendenschloßstraße ,35,13.58754,52.44466
PVOLL,PVOLL-1397-004,Stephanus gGmbH Seniorenzentrum Ulmenhof,Grenzbergeweg 38,12589,Treptow-Köpenick,95,Grenzbergeweg ,38,13.72056,52.43448
PVOLL,PVOLL-1397-006,Stephanus gGmbH St. Elisabeth-Stift ,Eberswalder Straße 17/18,10437,Pankow,84,Eberswalder Straße ,17/18,13.40935,52.54104
PVOLL,PVOLL-1397-007,Stephanus gGmbH Seniorenzentrum am Bürgerpark,Leonhard-Frank-Straße 10,13156,Pankow,76,Leonhard-Frank-Straße ,10,13.39217,52.57163
PVOLL,PVOLL-1397-008,Stephanus gGmbH Dr. Harnisch-Haus ,Liebigstraße 39,10247,Friedrichshain-Kreuzberg,166,Liebigstraße ,39,13.4562,52.51729
PVOLL,PVOLL-1397-009,"Stephanus gGmbH Haus am Weinbergsweg ""Sala und Martin Kochmann""",Weinbergsweg 14,10119,Mitte,124,Weinbergsweg ,14,13.40434,52.53229
PVOLL,PVOLL-1397-013,Stephanus gGmbH Elisabeth Diakoniewerk (Dorotheahaus),Pfarrer-Lenzel-Straße 1-5,13156,Pankow,36,Pfarrer-Lenzel-Straße ,1-5,13.3957,52.58864
PVOLL,PVOLL-1397-014,Stephanus gGmbH Elisabeth Diakoniewerk (Haus Immanuel),Pfarrer-Lenzel-Straße 1-5,13156,Pankow,84,Pfarrer-Lenzel-Straße ,1-5,13.3957,52.58864
PVOLL,PVOLL-1397-017,Stephanus gGmbH Haus Müggelspree,Am Schloßberg 1,12559,Treptow-Köpenick,72,Am Schloßberg ,1,13.58523,52.44341
PVOLL,PVOLL-1419-001,ProCurand Seniorendomizil Wilhelm-Stift  Am Schloßpark Charlottenburg Pflege ,Ernst-Bumm-Weg 6,14059,Charlottenburg-Wilmersdorf,130,Ernst-Bumm-Weg ,6,13.28839,52.5205
PVOLL,PVOLL-1419-002,ProCurand Seniorenresidenz Bölschestraße,Bölschestraße 37,12587,Treptow-Köpenick,106,Bölschestraße ,37,13.62543,52.45199
PVOLL,PVOLL-1427-002,Seniorenzentrum Caroline Bertheau ,Schönwalder Allee 26,13587,Spandau,64,Schönwalder Allee ,26,13.19243,52.56768
PVOLL,PVOLL-1427-003,Theodor-Fliedner-Haus,Schönwalder Allee 26,13587,Spandau,67,Schönwalder Allee ,26,13.19243,52.56768
PVOLL,PVOLL-1427-004,Amalie-Sieveking-Haus (Pflegewohnen),Schönwalder Allee 26,13587,Spandau,51,Schönwalder Allee ,26,13.19243,52.56768
PVOLL,PVOLL-1427-009,Pflegewohnen Kurt-Scharf-Haus,Schönwalder Allee 26,13587,Spandau,54,Schönwalder Allee ,26,13.19243,52.56768
PVOLL,PVOLL-1427-011,Seniorenzentrum Johannastift,Sotzmannstraße 3,13581,Spandau,72,Sotzmannstraße ,3,13.18121,52.52507
PVOLL,PVOLL-1432-001,Rosenhof Berlin-Zehlendorf,Winfriedstraße 6,14169,Steglitz-Zehlendorf,77,Winfriedstraße ,6,13.26836,52.4393
PVOLL,PVOLL-1433-001,Villa Grüntal-WG für Senioren GmbH,Seehofstraße 12,14169,Steglitz-Zehlendorf,60,Seehofstraße ,12,13.26484,52.43368
PVOLL,PVOLL-1437-001,"Senioren-u.Therapiezentrum ""Haus an der Spree""",Bootsbauerstraße 17,10245,Friedrichshain-Kreuzberg,208,Bootsbauerstraße ,17,13.47272,52.49675
PVOLL,PVOLL-1447-001,Pro Seniore Residenz Wasserstadt,An der Havelspitze 3,13587,Spandau,226,An der Havelspitze ,3,13.21812,52.55591
PVOLL,PVOLL-1448-001,Pro Seniore Residenz Kurfürstendamm,Kurfürstendamm 100,10709,Charlottenburg-Wilmersdorf,50,Kurfürstendamm ,100,13.29692,52.49837
PVOLL,PVOLL-1483-001,DOMICIL- Seniorenpflegeheim Müllerstraße,Müllerstraße 76,13349,Mitte,126,Müllerstraße ,76,13.338,52.55863
PVOLL,PVOLL-1486-001,DOMICIL- Seniorenpflegeheim Baumschulenweg,Mörikestraße 7,12437,Treptow-Köpenick,142,Mörikestraße ,7,13.48527,52.46593
PVOLL,PVOLL-1487-001,DOMICIL- Seniorenpflegeheim Bergstraße,Altmarkstraße 27,12169,Steglitz-Zehlendorf,181,Altmarkstraße ,27,13.34215,52.45897
PVOLL,PVOLL-1494-001,Pro Seniore Residenz Am Märchenbrunnen,Barnimstraße 18,10249,Friedrichshain-Kreuzberg,220,Barnimstraße ,18,13.42268,52.52617
PVOLL,PVOLL-1502-001,Gesundheits- und Pflegezentrum Goldenherz,Maxstraße 2,13347,Mitte,228,Maxstraße ,2,13.36645,52.54856
PVOLL,PVOLL-1510-001,AGAPLESION Bethanien Radeland,Radelandstraße 199/203,13589,Spandau,171,Radelandstraße ,199/203,13.16085,52.56374
PVOLL,PVOLL-1510-002,AGAPLESION Bethanien Havelstrand,Rohrweihstraße 15,13505,Reinickendorf,44,Rohrweihstraße ,15,13.22132,52.58699
PVOLL,PVOLL-1510-003,AGAPLESION Bethanien Haus Bethesda,Dieffenbachstraße 40,10967,Friedrichshain-Kreuzberg,101,Dieffenbachstraße ,40,13.41958,52.49199
PVOLL,PVOLL-1510-004,AGAPLESION Bethanien Sophienhaus ,Paulsenstraße 5-6,12163,Steglitz-Zehlendorf,103,Paulsenstraße ,5-6,13.31182,52.46147
PVOLL,PVOLL-1510-005,AGAPLESION Bethanien HavelGarten,Spandauer Burgwall 29,13581,Spandau,132,Spandauer Burgwall ,29,13.20084,52.5263
PVOLL,PVOLL-1511-001,Haus Alma Via,Jenny-Lind-Straße 7,13189,Pankow,78,Jenny-Lind-Straße ,7,13.42373,52.56098
PVOLL,PVOLL-1512-001,Immanuel Seniorenzentrum Schöneberg,Hauptstraße 121,10827,Tempelhof-Schöneberg,62,Hauptstraße ,121,,
PVOLL,PVOLL-1518-001,Pflegewerk SRK Seniorencentrum Kurfürstendamm,Kurfürstendamm 126/127,10711,Charlottenburg-Wilmersdorf,60,Kurfürstendamm ,126/127,13.28648,52.49527
PVOLL,PVOLL-1520-001,Seniorenstiftung PflegeWohnen Haus 33,Gürtelstraße 33,10409,Pankow,118,Gürtelstraße ,33,,
PVOLL,PVOLL-1522-001,Ev. Pflegewohnheim Schönow,Teltower Damm 189- 203,14167,Steglitz-Zehlendorf,150,Teltower Damm ,189-203,13.26625,52.41693
PVOLL,PVOLL-1537-001,DOMICIL- Seniorenpflegeheim Techowpromenade GmbH,Techowpromenade 9,13437,Reinickendorf,170,Techowpromenade ,9,13.32927,52.58943
PVOLL,PVOLL-1541-001,Haus Sonne Berlin Seniorenbetreuung mit Kompetenz,Altenauer Weg 7,12209,Steglitz-Zehlendorf,85,Altenauer Weg ,7,13.32666,52.41985
PVOLL,PVOLL-1544-001,Domizil Alt-Mariendorf,Mariendorfer Damm 148,12107,Tempelhof-Schöneberg,62,Mariendorfer Damm ,148,13.38761,52.43809
PVOLL,PVOLL-1544-002,Domizil am Gartenplatz (Altbau),Feldstraße 5,13355,Mitte,42,Feldstraße ,5,13.3845,52.53733
PVOLL,PVOLL-1544-003,Domizil am Gartenplatz (Anbau),Feldstraße 5,13355,Mitte,20,Feldstraße ,5,13.3845,52.53733
PVOLL,PVOLL-1585-001,Seniorenpflegeheim Wedding,Gerichtstraße 79-82,13347,Mitte,125,Gerichtstraße ,79-82,13.3767,52.5427
PVOLL,PVOLL-1590-001,Wohn- und Pflegezentrum am Landschaftspark Herzberge,Allee der Kosmonauten 23B,10315,Lichtenberg,45,Allee der Kosmonauten ,23B,13.51413,52.52637
PVOLL,PVOLL-1599-001,Herthasee Seniorenzentrum,Delbrückstraße 4A,14193,Charlottenburg-Wilmersdorf,90,Delbrückstraße ,4A,13.27586,52.48706
PVOLL,PVOLL-1599-002,Mathildenhof Seniorenzentrum,Kirchblick 8,14129,Steglitz-Zehlendorf,55,Kirchblick ,8,13.21956,52.43925
PVOLL,PVOLL-1607-001,Haus Rudow,Rudower Straße 176,12351,Neukölln,97,Rudower Straße ,176,13.47404,52.43153
PVOLL,PVOLL-1617-001,Seniorenheim Haus Hartwig,Dorotheenstraße 2,14109,Steglitz-Zehlendorf,40,Dorotheenstraße ,2,13.14523,52.39815
PVOLL,PVOLL-1637-001,Seniorenpflege Birkholz Betriebs GmbH,Gervinusstraße 40,10629,Charlottenburg-Wilmersdorf,136,Gervinusstraße ,40,13.3031,52.50385
PVOLL,PVOLL-1647-001,DOMICIL- Seniorenpflegeheim Frobenstraße GmbH,Frobenstraße 79,12249,Steglitz-Zehlendorf,180,Frobenstraße ,79,13.34483,52.43022
PVOLL,PVOLL-1652-001,"Senioren-Residenz ""Märkisches Viertel""",Senftenberger Ring 2a,13439,Reinickendorf,101,Senftenberger Ring ,2a,13.35666,52.59825
PVOLL,PVOLL-1652-002,"Alloheim/poli.care/Ensemble GmbH Senioren-Residenz ""Schwyzer Strasse""",Schwyzer Straße 7,13349,Mitte,96,Schwyzer Straße ,7,13.35406,52.55892
PVOLL,PVOLL-1652-003,"Senioren-Residenz ""POLIMAR""",Ludwig-Renn-Straße 66-72,12687,Marzahn-Hellersdorf,95,Ludwig-Renn-Straße ,66-72,13.56096,52.55485
PVOLL,PVOLL-1652-004,Senioren-Residenz Hildburghauser Straße,Hildburghauser Straße 31,12279,Tempelhof-Schöneberg,110,Hildburghauser Straße ,31,13.35186,52.41356
PVOLL,PVOLL-1652-005,"Senioren-Residenz ""Kurt-Exner-Haus""",Wutzkyallee 65,12353,Neukölln,156,Wutzkyallee ,65,13.4743,52.42395
PVOLL,PVOLL-1652-006,"Senioren-Residenz ""Lichterfelde""",Lichterfelder Ring 197,12209,Steglitz-Zehlendorf,138,Lichterfelder Ring ,197,13.33284,52.41093
PVOLL,PVOLL-1652-007,Senioren-Residenz Ullsteinstraße,Ullsteinstraße 159,12105,Tempelhof-Schöneberg,172,Ullsteinstraße ,159,13.38196,52.45209
PVOLL,PVOLL-1652-008,"Sozialpsychiatrisches Pflegezentrum ""Am Körnerpark""",Rübelandstraße 13,12051,Neukölln,62,Rübelandstraße ,13,13.43898,52.47071
PVOLL,PVOLL-1683-001,DOMICIL- Seniorenpflegeheim Am Frankfurter Tor GmbH,Weidenweg 44,10249,Friedrichshain-Kreuzberg,197,Weidenweg ,44,13.45181,52.51804
PVOLL,PVOLL-1729-001,Lazarus-Haus Berlin,Bernauer Straße 115-118,13355,Mitte,184,Bernauer Straße ,115-118,,
PVOLL,PVOLL-1729-013,Haus Fichtenberg,Carl-Heinrich-Becker-Weg 27-29,12165,Steglitz-Zehlendorf,50,Carl-Heinrich-Becker-Weg ,27-29,13.31016,52.45598
PVOLL,PVOLL-1729-014,Barbara-von-Renthe-Fink-Haus,Bundesallee 33,10717,Charlottenburg-Wilmersdorf,82,Bundesallee ,33,13.33049,52.48987
PVOLL,PVOLL-1731-001,Käthe-Dorsch-Haus,Tharauer Allee 15,14055,Charlottenburg-Wilmersdorf,136,Tharauer Allee ,15,13.22502,52.50999
PVOLL,PVOLL-1733-001,DOMICIL- Seniorenpflegeheim Feuerbachstraße GmbH,Feuerbachstraße 44,12163,Steglitz-Zehlendorf,121,Feuerbachstraße ,44,13.33592,52.46413
PVOLL,PVOLL-1749-001,Johanniter-Stift Berlin-Tegel,Karolinenstraße 21,13507,Reinickendorf,117,Karolinenstraße ,21,13.28148,52.59174
PVOLL,PVOLL-1755-001,REMEO Center Berlin,Ullsteinstraße 159,12105,Tempelhof-Schöneberg,24,Ullsteinstraße ,159,13.38196,52.45209
PVOLL,PVOLL-1759-001,Brunnenhof Seniorenresidenzen & Pflegeheime Haus Steglitz GmbH ,Albrechtstraße 28,12167,Steglitz-Zehlendorf,50,Albrechtstraße ,28,13.33031,52.45322
PVOLL,PVOLL-1762-001,Sanatorium West,Dessauerstraße 1,12249,Steglitz-Zehlendorf,180,Dessauerstraße ,1,13.33535,52.42441
PVOLL,PVOLL-1763-001,Residenz Dahlem,Clayallee 54- 56,14195,Steglitz-Zehlendorf,120,Clayallee ,54-56,13.2782,52.46528
PVOLL,PVOLL-1783-001,DOMICIL- Seniorenpflegeheim Gotlindestraße GmbH,Gotlindestraße 51,10365,Lichtenberg,174,Gotlindestraße ,51,13.49567,52.5178
PVOLL,PVOLL-1796-001,DOMICIL- Seniorenpflegeheim Afrikanische Straße GmbH,Transvaalstraße 22,13351,Mitte,200,Transvaalstraße ,22,13.3397,52.55093
PVOLL,PVOLL-1805-001,Haus am Wiesengrund Berlin-Spandau,Wiesengrund 20,13591,Spandau,146,Wiesengrund ,20,13.14239,52.52586
PVOLL,PVOLL-1805-002,Haus Spreetalhof Berlin-Altglienicke,Semmelweisstraße 53,12524,Treptow-Köpenick,140,Semmelweisstraße ,53,13.5328,52.42309
PVOLL,PVOLL-1808-001,GIOMI Senioren-Residen Lore-Lipschitz,Horstwalder Straße 15,12307,Tempelhof-Schöneberg,168,Horstwalder Straße ,15,13.41062,52.38187
PVOLL,PVOLL-1813-001,Friedrich Küter Pflegewohnpark ,Forddamm 6-8,12107,Tempelhof-Schöneberg,83,Forddamm ,6-8,13.3825,52.43875
PVOLL,PVOLL-1891-001,Fürsorge im Alter Seniorenresidenz Biesdorfer Höhe,Apollofalterallee 37,12683,Marzahn-Hellersdorf,180,Apollofalterallee ,37,13.56811,52.50542
PVOLL,PVOLL-1900-001,Christophorus Pflege Havelhöhe,Kladower Damm 289,14089,Spandau,46,Kladower Damm ,289,13.15534,52.46019
PVOLL,PVOLL-1914-001,Aquinata-Pflegeeinrichtungen örtl. Bereiche Knesebeckstr. 1 und Pfleiderer Str. 3-4,Knesebeckstraße 1,12205,Steglitz-Zehlendorf,95,Knesebeckstraße ,1,13.29416,52.4442
PVOLL,PVOLL-1919-007,Wohngruppe für geistig behinderte Menschen mit erhöhtem Pflegebedarf,Allee der Kosmonauten 23A,10315,Lichtenberg,10,Allee der Kosmonauten ,23A,13.51339,52.5268
PVOLL,PVOLL-1925-001,Psychiatrische Pflegeeinrichtung Wannsee,Zum Heckeshorn 18,14109,Steglitz-Zehlendorf,125,Zum Heckeshorn ,18,13.16108,52.42864
PVOLL,PVOLL-1928-001,Domicil - Seniorenpflegeheim Amendestraße,Herbststraße 34,13409,Reinickendorf,171,Herbststraße ,34,13.37443,52.57129
PVOLL,PVOLL-1934-001,Seniorenzentrum Bethel Lichterfelde,Promenadenstraße 6 - 8 ,12207,Steglitz-Zehlendorf,140,Promenadenstraße ,6-8,13.32253,52.43353
PVOLL,PVOLL-1937-001,Domicil - Seniorenpflegeheim Am Schloss Friedrichsfelde GmbH,Alfred-Kowalke-Straße 29,10315,Lichtenberg,174,Alfred-Kowalke-Straße ,29,13.52095,52.50635
PVOLL,PVOLL-1950-003,Haus  Ingrid-Tagespflege und Pflegeeinrichtung für Senioren Berlin-Heinersdorf GmbH,Romain-Rolland-Straße 40-42,13089,Pankow,70,Romain-Rolland-Straße ,40-42,13.44215,52.56577
PVOLL,PVOLL-1951-001,Domicil - Seniorenpflegeheim Küterstraße GmbH,Küterstraße 7,12105,Tempelhof-Schöneberg,142,Küterstraße ,7,13.38136,52.44436
PVOLL,PVOLL-1954-001,Johanniter-Stift Berlin Johannisthal,Straße am Flugplatz 46,12487,Treptow-Köpenick,99,Straße am Flugplatz ,46,13.51369,52.4296
PVOLL,PVOLL-1971-001,Pflege & Wohnen Anna Maria Gerhardt  Johannesstift Diakonie,Stadtrandstraße 555,13589,Spandau,186,Stadtrandstraße ,555,13.15694,52.563
PVOLL,PVOLL-1978-001,Senterra Pflegezentrum,Schieritzstraße 28-32,10409,Pankow,174,Schieritzstraße ,28-32,,
PVOLL,PVOLL-2019-001,Domicil - Seniorenpflegeheim Lichterfelde-West GmbH,Curtiusstraße 42,12205,Steglitz-Zehlendorf,189,Curtiusstraße ,42,13.28873,52.44041
PVOLL,PVOLL-2028-001,Seniorenzentrum Hohenlohe,Ingelfinger Weg 5,13519,Spandau,90,Ingelfinger Weg ,5,,
